satname,norad_id,inclination_deg,eccentricity,mean_motion_rev_per_day,perigee_km,apogee_km,l1,l2
STARLINK-1008,44714,53.1578,0.0002085,15.31899912,468.7162661477669,471.57199938012945,1 44714U 19074B   26080.51885660  .00012617  00000+0  41507-3 0  9992,2 44714  53.1578 123.7039 0002085  70.0868 290.0358 15.31899912350687
STARLINK-1012,44718,53.1606,0.0002483,15.31215968,470.48231498797486,473.88418402387924,1 44718U 19074F   26081.28842907  .00028449  00000+0  93900-3 0  9992,2 44718  53.1606 120.2456 0002483  50.7729 309.3492 15.31215968350799
STARLINK-1017,44723,53.0495,0.0002564,15.25186296,488.46503135921284,491.9871279464596,1 44723U 19074L   26081.25949161  .00013541  00000+0  54504-3 0  9999,2 44723  53.0495 113.4151 0002564  55.4952 304.6287 15.25186296350880
STARLINK-1019,44724,53.0412,1.77e-05,15.8489008,316.51576510376617,316.75276000645954,1 44724U 19074M   26081.23947245  .00174191  00000+0  71905-3 0  9992,2 44724  53.0412  73.4345 0000177 100.5556 259.5487 15.84890080351430
STARLINK-1020,44725,53.1601,0.0001558,15.3051356,473.2113892107791,475.34660203501426,1 44725U 19074N   26080.88206270  .00026259  00000+0  88695-3 0  9994,2 44725  53.1601 147.2101 0001558  72.4879 287.6292 15.30513560350375
STARLINK-1031,44736,53.0359,0.00044,15.97628268,278.0710119490868,283.9310534178476,1 44736U 19074Z   26081.25002315  .00337466  57617-4  74040-3 0  9997,2 44736  53.0359  55.6892 0004400  63.0807 352.5501 15.97628268  6010
STARLINK-1036,44741,53.0479,0.0004553,15.5818446,389.8287074863365,395.9944243104437,1 44741U 19074AE  26080.29413517  .00099450  00000+0  12844-2 0  9996,2 44741  53.0479 132.2645 0004553 348.7484  11.3424 15.58184460350531
STARLINK-1039,44744,53.0547,0.0001245,15.22707739,496.821247148102,498.53332490532284,1 44744U 19074AH  26080.49880627  .00030990  00000+0  13209-2 0  9991,2 44744  53.0547 160.7709 0001245 246.8641 113.2224 15.22707739350154
STARLINK-1042,44747,53.0451,0.0001802,15.50452488,414.17978873218544,416.6281809031125,1 44747U 19074AL  26081.16122139  .00032973  00000+0  57476-3 0  9994,2 44747  53.0451  34.9270 0001802 125.2013 234.9165 15.50452488352008
STARLINK-1043,44748,53.0506,0.0002391,15.5445638,402.1117809348516,405.3548713248074,1 44748U 19074AM  26080.87654601  .00035885  00000+0  54102-3 0  9994,2 44748  53.0506 135.6616 0002391  78.8174 281.3105 15.54456380350544
STARLINK-1046,44751,53.0519,0.000239,15.44985082,429.79442150723753,433.0493906643478,1 44751U 19074AQ  26080.90693714  .00052285  00000+0  10934-2 0  9997,2 44751  53.0519 152.7365 0002390 238.6615 121.4157 15.44985082350308
STARLINK-1047,44752,53.0698,0.0001502,15.32838756,466.319332785416,468.37571633659445,1 44752U 19074AR  26081.27682735  .00012295  00000+0  39316-3 0  9993,2 44752  53.0698  87.1915 0001502 278.7852  81.2979 15.32838756351275
STARLINK-1048,44753,53.0499,0.0002393,15.55615425,398.74215930931496,401.9863500097963,1 44753U 19074AS  26081.25012204  .00048017  00000+0  69049-3 0  9997,2 44753  53.0499 108.1510 0002393  26.1609 333.9521 15.55615425350959
STARLINK-1053,44758,53.0258,0.0005575,16.01361016,266.9420776775223,274.35547381748074,1 44758U 19074AX  26081.26160293  .00533432  13811-3  94305-3 0  9996,2 44758  53.0258  18.7829 0005575 128.5395 231.6135 16.01361016352212
STARLINK-1063,44768,53.1588,0.0001928,15.30986508,471.5468300008188,474.1885774145676,1 44768U 19074BH  26081.55095532 -.00198180  00000+0 -66920-2 0  9994,2 44768  53.1588 159.6234 0001928  54.3248 305.7932 15.30986508350289
STARLINK-1067,44771,53.05,0.00058,15.59246824,385.9102398864252,393.7610881767014,1 44771U 19074BL  26080.55816744  .00065382  00000+0  81659-3 0  9995,2 44771  53.0500 146.4972 0005800  10.8295 349.2841 15.59246824350363
STARLINK-1068,44772,53.0454,0.0004396,15.65600216,368.54595230299947,374.4802446695876,1 44772U 19074BM  26081.26823263  .00053893  00000+0  52767-3 0  9991,2 44772  53.0454 118.1685 0004396 353.5425   6.5532 15.65600216350816
STARLINK-1114,44927,53.0487,0.0006592,15.52343853,405.4100642186395,414.3593920650219,1 44927U 20001P   26081.24102013  .00060486  00000+0  97538-3 0  9997,2 44927  53.0487 269.0086 0006592 167.1274 192.9905 15.52343853342043
STARLINK-1123,44930,53.1481,0.0001006,15.29304043,477.20182502684565,478.58125796939385,1 44930U 20001S   26080.86297705  .00058055  00000+0  20117-2 0  9998,2 44930  53.1481 288.6806 0001006  59.9523 300.1577 15.29304043341734
STARLINK-1094,44941,53.1591,0.0001138,15.3032691,474.0562968762879,475.6160335686927,1 44941U 20001AD  26081.22376194  .00016335  00000+0  56023-3 0  9992,2 44941  53.1591 261.3372 0001138  94.7696 265.3435 15.30326910342159
STARLINK-1122,44949,53.1582,0.0001238,15.30211647,474.33185311631405,476.0287344782573,1 44949U 20001AM  26080.92367047  .00003414  00000+0  12730-3 0  9994,2 44949  53.1582 262.7814 0001238  75.7762 284.3376 15.30211647342107
STARLINK-1080,44961,53.0519,0.0004707,15.49268604,415.66508223791425,422.06377938488004,1 44961U 20001AZ  26081.13874088  .00080462  00000+0  14414-2 0  9998,2 44961  53.0519 228.6098 0004707 163.8808 196.2350 15.49268604342602
STARLINK-1090,44968,53.1531,0.0001215,15.2947332,476.5527179319997,478.2186099393375,1 44968U 20001BG  26081.15703852  .00024594  00000+0  85871-3 0  9997,2 44968  53.1531 248.5897 0001215 100.4286 259.6851 15.29473320342320
STARLINK-1132,45044,53.1556,0.0003826,15.44673533,429.73181221003233,434.94318729724455,1 45044U 20006A   26081.02055526  .00056605  00000+0  11949-2 0  9994,2 45044  53.1556 195.4603 0003826 267.5656  92.4913 15.44673533338832
STARLINK-1131,45047,53.1601,0.000136,15.30203723,474.27189886529777,476.13600760457757,1 45047U 20006D   26080.81451742  .00001782  00000+0  72255-4 0  9998,2 45047  53.1601 224.6575 0001360 106.0033 254.1118 15.30203723338408
STARLINK-1134,45048,53.0319,0.0005969,15.45427893,426.05723410208975,434.18493260199466,1 45048U 20006E   26080.66077632  .00033990  00000+0  70458-3 0  9992,2 45048  53.0319 181.3049 0005969 229.5624 130.4861 15.45427893338992
STARLINK-1156,45054,53.1606,0.0001124,15.30189339,474.47658107795905,476.01722177899956,1 45054U 20006L   26080.64493214  .00000587  00000+0  31938-4 0  9992,2 45054  53.1606 225.4626 0001124  77.5010 282.6117 15.30189339338379
STARLINK-1159,45057,53.0433,0.0001897,15.85890637,312.5486293653039,315.087557127682,1 45057U 20006P   26081.25002315  .00235891  00000+0  92037-3 0  9995,2 45057  53.0433 171.3757 0001897   9.7623 347.2205 15.85890637  5992
STARLINK-1166,45060,53.0508,0.0001942,15.47285391,423.3500644591513,425.9922751523036,1 45060U 20006S   26081.24474950  .00059827  00000+0  11539-2 0  9996,2 45060  53.0508 212.7755 0001942 219.9891 140.0973 15.47285391338601
STARLINK-1169,45061,53.1595,0.000133,15.30437254,473.59536163704524,475.4181648780723,1 45061U 20006T   26080.80778588  .00008644  00000+0  30144-3 0  9997,2 45061  53.1595 224.6982 0001330  63.9732 296.1406 15.30437254338406
STARLINK-1171,45062,53.0439,0.0002641,15.64968663,371.5458235498463,375.1119478306691,1 45062U 20006U   26080.72144753  .00064500  00000+0  64583-3 0  9997,2 45062  53.0439 190.4638 0002641  14.2280 345.8808 15.64968663338873
STARLINK-1133,45064,53.1608,0.0001153,15.30203371,474.4148139063391,475.9951945725179,1 45064U 20006W   26080.74866854  .00002546  00000+0  98043-4 0  9995,2 45064  53.1608 201.7835 0001153  86.4751 273.6381 15.30203371338729
STARLINK-1167,45071,53.1599,0.0001688,15.30126958,474.27628569656827,476.5900509853991,1 45071U 20006AD  26081.04202240  .00020767  00000+0  71290-3 0  9999,2 45071  53.1599 200.5220 0001688  39.9745 320.1380 15.30126958338766
STARLINK-1168,45072,53.159,0.0001454,15.29362361,476.7204087362652,478.7140911521492,1 45072U 20006AE  26081.05441112  .00000729  00000+0  37592-4 0  9998,2 45072  53.1590 200.5514 0001454  93.7221 266.3946 15.29362361338769
STARLINK-1172,45074,53.1572,9.56e-05,15.31053008,472.01438676799535,473.3242609371164,1 45074U 20006AG  26081.04897973  .00017045  00000+0  57108-3 0  9992,2 45074  53.1572 200.3762 0000956  57.8722 302.2372 15.31053008338768
STARLINK-1153,45080,53.1597,0.0001957,15.30109436,474.14423661496494,476.82674445776047,1 45080U 20006AN  26081.02642711  .00018297  00000+0  63012-3 0  9996,2 45080  53.1597 200.5114 0001957  28.2001 331.9106 15.30109436338769
STARLINK-1151,45081,53.0522,0.0002934,15.66863983,365.90400430847967,369.8625690126928,1 45081U 20006AP  26080.69682937  .00072722  00000+0  67363-3 0  9999,2 45081  53.0522 180.7663 0002934  22.9781 337.1365 15.66863983339003
STARLINK-1185,45087,53.1605,0.0001687,15.33740744,463.5090093783392,465.81777022985807,1 45087U 20006AV  26080.64443094  .00053008  00000+0  16020-2 0  9998,2 45087  53.1605 186.6448 0001687  28.4467 331.6627 15.33740744338927
STARLINK-1183,45088,53.1578,0.0001011,15.30219024,474.46539962133284,475.8511359244767,1 45088U 20006AW  26080.70539579  .00005461  00000+0  19626-3 0  9996,2 45088  53.1578 186.7680 0001011  81.8605 278.2510 15.30219024338920
STARLINK-1152,45096,53.037,0.0003077,15.3998981,444.0395917843025,448.23925149417937,1 45096U 20006BE  26080.47931547  .00036221  00000+0  90006-3 0  9999,2 45096  53.0370 150.7993 0003077 290.4040  69.6633 15.39989810339409
STARLINK-1184,45098,53.0541,0.0004198,15.10853554,530.6940509518545,536.4971416397048,1 45098U 20006BG  26080.57562571  .00019907  00000+0  11972-2 0  9995,2 45098  53.0541 191.7129 0004198 161.6754 198.4389 15.10853554338832
STARLINK-1193,45100,53.0518,0.0004752,15.58156808,389.77403408403734,396.20931477621525,1 45100U 20006BJ  26080.65320774  .00063729  00000+0  82987-3 0  9991,2 45100  53.0518 172.4140 0004752  15.6502 344.4655 15.58156808339115
STARLINK-1143,45179,53.0449,0.0006071,15.6612655,365.9039659197242,374.0975547883463,1 45179U 20012B   26081.25002315 -.00060483  00000+0 -57608-3 0  9997,2 45179  53.0449 268.3145 0006071 154.6383  42.1791 15.66126550  5989
